ONEWEB-0233             
1 48795U 21045AE  24191.60865335 -.00000101  00000+0 -30523-3 0  9997
2 48795  87.9021  40.0497 0001976  81.6069 278.5285 13.15066887151266
ONEWEB-0190             
1 48796U 21045AF  24191.59707685 -.00000050  00000+0 -16581-3 0  9990
2 48796  87.9024  40.0125 0002302  59.7540 300.3818 13.15547703151337
ONEWEB-0236             
1 48797U 21045AG  24191.61450479 -.00000101  00000+0 -30327-3 0  9991
2 48797  87.9028  40.0037 0001738  80.7962 279.3365 13.15547546152347
ONEWEB-0248             
1 48798U 21045AH  24191.62717549  .00000007  00000+0 -16356-4 0  9998
2 48798  87.9018  39.9899 0001624  58.8239 301.3050 13.15546868152508
ONEWEB-0225             
1 48799U 21045AJ  24191.57330407  .00000184  00000+0  45596-3 0  9999
2 48799  87.9024  40.0138 0001928  70.3429 289.7909 13.15547287151385
ONEWEB-0215             
1 48800U 21045AK  24191.61925619 -.00000112  00000+0 -33265-3 0  9995
2 48800  87.9016  39.9772 0001927  56.6053 303.5262 13.15547601152387
ONEWEB-0216             
1 48801U 21045AL  24191.55270244  .00000042  00000+0  76808-4 0  9997
2 48801  87.9018  40.0318 0002110  83.8905 276.2466 13.15546434151263
ONEWEB-0239             
1 48802U 21045AM  24191.63351645  .00000079  00000+0  17595-3 0  9999
2 48802  87.9027  39.9934 0001679  52.4722 307.6561 13.15547150152456
